GLOBALSTAR M094         
1 39074U 13005C   24317.52924106 -.00000082  00000+0  11977-3 0  9996
2 39074  51.9935 121.7745 0001169 112.0389 248.0602 12.62265367545012
GLOBALSTAR M096         
1 39075U 13005D   24317.30486048 -.00000064  00000+0  22099-3 0  9998
2 39075  52.0050 170.8052 0001246  95.0719 265.0290 12.62264674543900
GLOBALSTAR M078         
1 39076U 13005E   24317.51555756  .00000014  00000+0  65531-3 0  9997
2 39076  51.9872 254.9645 0001613  63.7785 296.3248 12.62267620542550
GLOBALSTAR M087         
1 52888U 22064A   24316.68541633 -.00000059  00000+0  13247-3 0  9991
2 52888  51.9771  54.0520 0009361  23.1363 336.9957 13.37593600117262
